[{"OBJECT_NAME":"COSMOS 2522 (752)","OBJECT_ID":"2017-055A","EPOCH":"2022-08-19T08:43:40.917792","MEAN_MOTION":2.1310199,"ECCENTRICITY":0.0010147,"INCLINATION":64.1421,"RA_OF_ASC_NODE":239.6745,"ARG_OF_PERICENTER":243.7924,"MEAN_ANOMALY":241.1845,"EPHEMERIS_TYPE":0,"CLASSIFICATION_TYPE":"U","NORAD_CAT_ID":42939,"ELEMENT_SET_NO":999,"REV_AT_EPOCH":3819,"BSTAR":0,"MEAN_MOTION_DOT":8.1e-7,"MEAN_MOTION_DDOT":0},{"OBJECT_NAME":"QZS-4 (QZSS\/PRN 185)","OBJECT_ID":"2017-062A","EPOCH":"2022-08-19T12:01:18.930720","MEAN_MOTION":1.00290508,"ECCENTRICITY":0.0747131,"INCLINATION":40.7558,"RA_OF_ASC_NODE":1.3095,"ARG_OF_PERICENTER":269.0317,"MEAN_ANOMALY":15.3711,"EPHEMERIS_TYPE":0,"CLASSIFICATION_TYPE":"U","NORAD_CAT_ID":42965,"ELEMENT_SET_NO":999,"REV_AT_EPOCH":1779,"BSTAR":0,"MEAN_MOTION_DOT":-3.59e-6,"MEAN_MOTION_DDOT":0},{"OBJECT_NAME":"BEIDOU-3 M1 (C19)","OBJECT_ID":"2017-069A","EPOCH":"2022-08-19T06:04:33.320352","MEAN_MOTION":1.86231749,"ECCENTRICITY":0.0009449,"INCLINATION":55.5875,"RA_OF_ASC_NODE":109.5805,"ARG_OF_PERICENTER":298.1473,"MEAN_ANOMALY":293.4959,"EPHEMERIS_TYPE":0,"CLASSIFICATION_TYPE":"U","NORAD_CAT_ID":43001,"ELEMENT_SET_NO":999,"REV_AT_EPOCH":3256,"BSTAR":0,"MEAN_MOTION_DOT":-5.8e-7,"MEAN_MOTION_DDOT":0},{"OBJECT_NAME":"BEIDOU-3 M2 (C20)","OBJECT_ID":"2017-069B","EPOCH":"2022-08-18T13:24:08.483328","MEAN_MOTION":1.86231374,"ECCENTRICITY":0.0008121,"INCLINATION":55.5868,"RA_OF_ASC_NODE":109.6398,"ARG_OF_PERICENTER":322.721,"MEAN_ANOMALY":206.0748,"EPHEMERIS_TYPE":0,"CLASSIFICATION_TYPE":"U","NORAD_CAT_ID":43002,"ELEMENT_SET_NO":999,"REV_AT_EPOCH":3254,"BSTAR":0,"MEAN_MOTION_DOT":-5.5e-7,"MEAN_MOTION_DDOT":0},{"OBJECT_NAME":"GSAT0215 (PRN E21)","OBJECT_ID":"2017-079A","EPOCH":"2022-08-18T14:26:13.028352","MEAN_MOTION":1.70474388,"ECCENTRICITY":0.0004017,"INCLINATION":55.7057,"RA_OF_ASC_NODE":260.0127,"ARG_OF_PERICENTER":267.0625,"MEAN_ANOMALY":92.9459,"EPHEMERIS_TYPE":0,"CLASSIFICATION_TYPE":"U","NORAD_CAT_ID":43055,"ELEMENT_SET_NO":999,"REV_AT_EPOCH":2914,"BSTAR":0,"MEAN_MOTION_DOT":3.1e-7,"MEAN_MOTION_DDOT":0},{"OBJECT_NAME":"GSAT0216 (PRN E25)","OBJECT_ID":"2017-079B","EPOCH":"2022-08-17T17:17:36.630240","MEAN_MOTION":1.70474171,"ECCENTRICITY":0.0005656,"INCLINATION":55.7064,"RA_OF_ASC_NODE":260.037,"ARG_OF_PERICENTER":271.7242,"MEAN_ANOMALY":88.2639,"EPHEMERIS_TYPE":0,"CLASSIFICATION_TYPE":"U","NORAD_CAT_ID":43056,"ELEMENT_SET_NO":999,"REV_AT_EPOCH":2914,"BSTAR":0,"MEAN_MOTION_DOT":2.6e-7,"MEAN_MOTION_DDOT":0},{"OBJECT_NAME":"GSAT0217 (PRN E27)","OBJECT_ID":"2017-079C","EPOCH":"2022-08-17T08:30:04.471488","MEAN_MOTION":1.70474489,"ECCENTRICITY":0.0005032,"INCLINATION":55.7039,"RA_OF_ASC_NODE":260.0467,"ARG_OF_PERICENTER":281.1498,"MEAN_ANOMALY":78.8465,"EPHEMERIS_TYPE":0,"CLASSIFICATION_TYPE":"U","NORAD_CAT_ID":43057,"ELEMENT_SET_NO":999,"REV_AT_EPOCH":2912,"BSTAR":0,"MEAN_MOTION_DOT":2.4e-7,"MEAN_MOTION_DDOT":0},{"OBJECT_NAME":"GSAT0218 (PRN E31)","OBJECT_ID":"2017-079D","EPOCH":"2022-08-18T03:51:36.797184","MEAN_MOTION":1.70474462,"ECCENTRICITY":0.0006087,"INCLINATION":55.7042,"RA_OF_ASC_NODE":260.0218,"ARG_OF_PERICENTER":269.3022,"MEAN_ANOMALY":90.6815,"EPHEMERIS_TYPE":0,"CLASSIFICATION_TYPE":"U","NORAD_CAT_ID":43058,"ELEMENT_SET_NO":999,"REV_AT_EPOCH":2916,"BSTAR":0,"MEAN_MOTION_DOT":2.9e-7,"MEAN_MOTION_DDOT":0},{"OBJECT_NAME":"BEIDOU-3 M3 (C27)","OBJECT_ID":"2018-003A","EPOCH":"2022-08-18T14:44:16.579392","MEAN_MOTION":1.86232528,"ECCENTRICITY":0.0004877,"INCLINATION":55.296,"RA_OF_ASC_NODE":350.5465,"ARG_OF_PERICENTER":70.9734,"MEAN_ANOMALY":301.3487,"EPHEMERIS_TYPE":0,"CLASSIFICATION_TYPE":"U","NORAD_CAT_ID":43107,"ELEMENT_SET_NO":999,"REV_AT_EPOCH":3131,"BSTAR":0,"MEAN_MOTION_DOT":-1.2e-6,"MEAN_MOTION_DDOT":0},{"OBJECT_NAME":"BEIDOU-3 M4 (C28)","OBJECT_ID":"2018-003B","EPOCH":"2022-08-19T14:18:27.463680","MEAN_MOTION":1.86230775,"ECCENTRICITY":0.000275,"INCLINATION":55.2887,"RA_OF_ASC_NODE":350.5016,"ARG_OF_PERICENTER":228.2276,"MEAN_ANOMALY":126.0551,"EPHEMERIS_TYPE":0,"CLASSIFICATION_TYPE":"U","NORAD_CAT_ID":43108,"ELEMENT_SET_NO":999,"REV_AT_EPOCH":3132,"BSTAR":0,"MEAN_MOTION_DOT":-1.21e-6,"MEAN_MOTION_DDOT":0},{"OBJECT_NAME":"BEIDOU-3 M5 (C21)","OBJECT_ID":"2018-018A","EPOCH":"2022-08-18T23:24:45.454176","MEAN_MOTION":1.86231673,"ECCENTRICITY":0.0005882,"INCLINATION":55.5456,"RA_OF_ASC_NODE":109.7012,"ARG_OF_PERICENTER":350.9472,"MEAN_ANOMALY":9.1087,"EPHEMERIS_TYPE":0,"CLASSIFICATION_TYPE":"U","NORAD_CAT_ID":43207,"ELEMENT_SET_NO":999,"REV_AT_EPOCH":3070,"BSTAR":0,"MEAN_MOTION_DOT":-5.7e-7,"MEAN_MOTION_DDOT":0},{"OBJECT_NAME":"BEIDOU-3 M6 (C22)","OBJECT_ID":"2018-018B","EPOCH":"2022-08-19T01:00:46.225152","MEAN_MOTION":1.86231562,"ECCENTRICITY":0.0007618,"INCLINATION":55.546,"RA_OF_ASC_NODE":109.7046,"ARG_OF_PERICENTER":312.2088,"MEAN_ANOMALY":47.7951,"EPHEMERIS_TYPE":0,"CLASSIFICATION_TYPE":"U","NORAD_CAT_ID":43208,"ELEMENT_SET_NO":999,"REV_AT_EPOCH":3070,"BSTAR":0,"MEAN_MOTION_DOT":-5.7e-7,"MEAN_MOTION_DDOT":0},{"OBJECT_NAME":"BEIDOU-3 M7 (C29)","OBJECT_ID":"2018-029A","EPOCH":"2022-08-19T06:44:37.754592","MEAN_MOTION":1.86232712,"ECCENTRICITY":0.0001,"INCLINATION":55.2063,"RA_OF_ASC_NODE":348.288,"ARG_OF_PERICENTER":130.3117,"MEAN_ANOMALY":239.6155,"EPHEMERIS_TYPE":0,"CLASSIFICATION_TYPE":"U","NORAD_CAT_ID":43245,"ELEMENT_SET_NO":999,"REV_AT_EPOCH":2986,"BSTAR":0,"MEAN_MOTION_DOT":-1.21e-6,"MEAN_MOTION_DDOT":0},{"OBJECT_NAME":"BEIDOU-3 M8 (C30)","OBJECT_ID":"2018-029B","EPOCH":"2022-08-18T18:48:26.165088","MEAN_MOTION":1.86232947,"ECCENTRICITY":0.0003148,"INCLINATION":55.2033,"RA_OF_ASC_NODE":348.3345,"ARG_OF_PERICENTER":12.4824,"MEAN_ANOMALY":70.5731,"EPHEMERIS_TYPE":0,"CLASSIFICATION_TYPE":"U","NORAD_CAT_ID":43246,"ELEMENT_SET_NO":999,"REV_AT_EPOCH":2984,"BSTAR":0.0001,"MEAN_MOTION_DOT":-1.21e-6,"MEAN_MOTION_DDOT":0},{"OBJECT_NAME":"IRNSS-1I","OBJECT_ID":"2018-035A","EPOCH":"2022-08-18T17:11:42.531072","MEAN_MOTION":1.00276274,"ECCENTRICITY":0.0018952,"INCLINATION":29.2075,"RA_OF_ASC_NODE":96.3388,"ARG_OF_PERICENTER":177.1197,"MEAN_ANOMALY":6.6074,"EPHEMERIS_TYPE":0,"CLASSIFICATION_TYPE":"U","NORAD_CAT_ID":43286,"ELEMENT_SET_NO":999,"REV_AT_EPOCH":1605,"BSTAR":0,"MEAN_MOTION_DOT":7.1e-7,"MEAN_MOTION_DDOT":0},{"OBJECT_NAME":"COSMOS 2527 (756)","OBJECT_ID":"2018-053A","EPOCH":"2022-08-19T09:32:46.362912","MEAN_MOTION":2.13102579,"ECCENTRICITY":0.0007723,"INCLINATION":64.9803,"RA_OF_ASC_NODE":120.7284,"ARG_OF_PERICENTER":230.2017,"MEAN_ANOMALY":313.0209,"EPHEMERIS_TYPE":0,"CLASSIFICATION_TYPE":"U","NORAD_CAT_ID":43508,"ELEMENT_SET_NO":999,"REV_AT_EPOCH":3248,"BSTAR":0,"MEAN_MOTION_DOT":-3.9e-7,"MEAN_MOTION_DDOT":0},{"OBJECT_NAME":"BEIDOU IGSO-7 (C16)","OBJECT_ID":"2018-057A","EPOCH":"2022-08-19T14:40:06.762432","MEAN_MOTION":1.00291447,"ECCENTRICITY":0.0052721,"INCLINATION":55.0898,"RA_OF_ASC_NODE":175.1727,"ARG_OF_PERICENTER":228.9377,"MEAN_ANOMALY":256.6212,"EPHEMERIS_TYPE":0,"CLASSIFICATION_TYPE":"U","NORAD_CAT_ID":43539,"ELEMENT_SET_NO":999,"REV_AT_EPOCH":1514,"BSTAR":0,"MEAN_MOTION_DOT":-1.29e-6,"MEAN_MOTION_DDOT":0}]