COSMOS 2522 [GLONASS-M] 
1 42939U 17055A   22231.36366803  .00000081  00000+0  00000+0 0  9997
2 42939  64.1421 239.6745 0010147 243.7924 241.1845  2.13101990 38199
QZS-4 (MICHIBIKI-4)     
1 42965U 17062A   22231.50091355 -.00000359  00000+0  00000+0 0  9996
2 42965  40.7558   1.3095 0747131 269.0317  15.3711  1.00290508 17793
BEIDOU-3 M1             
1 43001U 17069A   22231.25316343 -.00000058  00000+0  00000+0 0  9990
2 43001  55.5875 109.5805 0009449 298.1473 293.4959  1.86231749 32561
BEIDOU-3 M2             
1 43002U 17069B   22230.55843152 -.00000055  00000+0  00000+0 0  9993
2 43002  55.5868 109.6398 0008121 322.7210 206.0748  1.86231374 32549
GSAT0215 (GALILEO 19)   
1 43055U 17079A   22230.60153968  .00000031  00000+0  00000+0 0  9990
2 43055  55.7057 260.0127 0004017 267.0625  92.9459  1.70474388 29142
GSAT0216 (GALILEO 20)   
1 43056U 17079B   22229.72056285  .00000026  00000+0  00000+0 0  9990
2 43056  55.7064 260.0370 0005656 271.7242  88.2639  1.70474171 29146
GSAT0217 (GALILEO 21)   
1 43057U 17079C   22229.35421842  .00000024  00000+0  00000+0 0  9993
2 43057  55.7039 260.0467 0005032 281.1498  78.8465  1.70474489 29124
GSAT0218 (GALILEO 22)   
1 43058U 17079D   22230.16084256  .00000029  00000+0  00000+0 0  9994
2 43058  55.7042 260.0218 0006087 269.3022  90.6815  1.70474462 29161
BEIDOU-3 M3             
1 43107U 18003A   22230.61408078 -.00000120  00000+0  00000+0 0  9992
2 43107  55.2960 350.5465 0004877  70.9734 301.3487  1.86232528 31319
BEIDOU-3 M4             
1 43108U 18003B   22231.59615120 -.00000121  00000+0  00000+0 0  9990
2 43108  55.2887 350.5016 0002750 228.2276 126.0551  1.86230775 31324
BEIDOU-3 M5             
1 43207U 18018A   22230.97552609 -.00000057  00000+0  00000+0 0  9997
2 43207  55.5456 109.7012 0005882 350.9472   9.1087  1.86231673 30703
BEIDOU-3 M6             
1 43208U 18018B   22231.04220168 -.00000057  00000+0  00000+0 0  9999
2 43208  55.5460 109.7046 0007618 312.2088  47.7951  1.86231562 30704
BEIDOU-3 M7             
1 43245U 18029A   22231.28099253 -.00000121  00000+0  00000+0 0  9999
2 43245  55.2063 348.2880 0001000 130.3117 239.6155  1.86232712 29869
BEIDOU-3 M8             
1 43246U 18029B   22230.78363617 -.00000121  00000+0  10000-3 0  9997
2 43246  55.2033 348.3345 0003148  12.4824  70.5731  1.86232947 29844
IRNSS-1I                
1 43286U 18035A   22230.71646448  .00000071  00000+0  00000+0 0  9995
2 43286  29.2075  96.3388 0018952 177.1197   6.6074  1.00276274 16059
COSMOS 2527 [GLONASS-M] 
1 43508U 18053A   22231.39775883 -.00000039  00000+0  00000+0 0  9998
2 43508  64.9803 120.7284 0007723 230.2017 313.0209  2.13102579 32485
BEIDOU IGSO-7           
1 43539U 18057A   22231.61118938 -.00000129  00000+0  00000+0 0  9993
2 43539  55.0898 175.1727 0052721 228.9377 256.6212  1.00291447 15149
